     2.100          NAVIGATION                              RINEX VERSION / TYPE
fic2rin                                 05/04/2012 00:12:47 PGM / RUN BY / DATE
                                                            END OF HEADER
22 12  5  3 18  0  0.0  .143636018038D-03  .227373675443D-12  .000000000000D+00
     .240000000000D+02  .118406250000D+03  .534057959943D-08 -.863577678814D+00
     .630505383015D-05  .599617883563D-02  .783987343311D-05  .515368267632D+04
     .410400000000D+06 -.577419996262D-07  .329734850574D+00  .117346644402D-06
     .928058122123D+00  .211750000000D+03 -.201253807669D+01 -.861250160240D-08
     .435018120251D-09  .100000000000D+01  .168600000000D+04  .000000000000D+00
     .240000000000D+01  .000000000000D+00 -.167638063431D-07  .240000000000D+02
     .403206000000D+06  .400000000000D+01
23 12  5  3 18  0  0.0  .208841636777D-03 -.363797880709D-11  .000000000000D+00
     .500000000000D+02 -.355937500000D+02  .501806616545D-08 -.275062057302D+01
    -.182539224625D-05  .779194990173D-02  .229850411415D-05  .515363714218D+04
     .410400000000D+06 -.158324837685D-06  .137750809856D+01 -.987201929092D-07
     .960191223064D+00  .339281250000D+03 -.301936047623D+01 -.849356807692D-08
    -.141434462742D-09  .100000000000D+01  .168600000000D+04  .000000000000D+00
     .240000000000D+01  .000000000000D+00 -.200234353542D-07  .500000000000D+02
     .403206000000D+06  .400000000000D+01
27 12  5  3 18  0  0.0  .384039711207D-03  .397903932026D-11  .000000000000D+00
     .189000000000D+03 -.101187500000D+03  .388123309751D-08 -.199693642403D+01
    -.491365790367D-05  .217072070809D-01  .125374644995D-04  .515374391365D+04
     .410400000000D+06 -.134110450745D-06  .237403787902D+01  .502914190292D-06
     .982015930277D+00  .144500000000D+03 -.108965625027D+01 -.760567394971D-08
    -.312870175156D-09  .100000000000D+01  .168600000000D+04  .000000000000D+00
     .240000000000D+01  .000000000000D+00 -.419095158577D-08  .189000000000D+03
     .403206000000D+06  .400000000000D+01
28 12  5  3 18  0  0.0  .140146352351D-03  .409272615798D-11  .000000000000D+00
     .430000000000D+02  .479375000000D+02  .428875007223D-08 -.940368446097D+00
     .260397791862D-05  .178550134879D-01  .906921923161D-05  .515362844658D+04
     .410400000000D+06 -.121071934700D-06 -.277583285137D+01  .333413481712D-06
     .978938785964D+00  .217656250000D+03 -.182936614202D+01 -.820927052050D-08
     .496806408267D-09  .100000000000D+01  .168600000000D+04  .000000000000D+00
     .240000000000D+01  .000000000000D+00 -.107102096081D-07  .430000000000D+02
     .403206000000D+06  .400000000000D+01
29 12  5  3 18  0  0.0  .309337861836D-03  .363797880709D-11  .000000000000D+00
     .520000000000D+02 -.281875000000D+02  .499270796633D-08  .128114592752D+01
    -.157952308655D-05  .230925285723D-02  .467523932457D-05  .515357944298D+04
     .410400000000D+06  .670552253723D-07 -.173350244423D+01 -.372529029846D-07
     .962910922362D+00  .290093750000D+03 -.114538169064D+01 -.840820737844D-08
    -.252510518077D-09  .100000000000D+01  .168600000000D+04  .000000000000D+00
     .240000000000D+01  .000000000000D+00 -.931322574615D-08  .520000000000D+02
     .403206000000D+06  .400000000000D+01
30 12  5  3 18  0  0.0 -.162006821483D-03 -.186446413863D-10  .000000000000D+00
     .300000000000D+02  .366875000000D+02  .441125517506D-08 -.163862756348D+01
     .200979411602D-05  .110006278846D-01  .101197510958D-04  .515364891815D+04
     .410400000000D+06  .614672899246D-07 -.292512675445D+01  .234693288803D-06
     .959885536091D+00  .183468750000D+03  .155973367591D+01 -.795676000242D-08
     .414302971667D-09  .100000000000D+01  .168600000000D+04  .000000000000D+00
     .965000000000D+01  .000000000000D+00 -.419095158577D-08  .300000000000D+02
     .403206000000D+06  .400000000000D+01
31 12  5  3 18  0  0.0  .238116364926D-03  .420641299570D-11  .000000000000D+00
     .860000000000D+02 -.102187500000D+03  .396695095372D-08  .193247951029D+01
    -.504218041897D-05  .781768828165D-02  .106282532215D-04  .515364186859D+04
     .410400000000D+06  .106170773506D-06  .242955644375D+01  .186264514923D-07
     .980910841960D+00  .181687500000D+03 -.864815921934D+00 -.767246244600D-08
    -.338228374284D-09  .100000000000D+01  .168600000000D+04  .000000000000D+00
     .240000000000D+01  .000000000000D+00 -.130385160446D-07  .860000000000D+02
     .403206000000D+06  .400000000000D+01
20 12  5  3 17 59 44.0  .632829032838D-04  .113686837722D-12  .000000000000D+00
     .400000000000D+01  .119437500000D+03  .524093259159D-08  .318959329548D+00
     .597350299358D-05  .502191134728D-02  .788457691669D-05  .515371534729D+04
     .410384000000D+06 -.651925802231D-07  .272591491490D+00  .540167093277D-07
     .930805441314D+00  .212375000000D+03  .129100258239D+01 -.860285834358D-08
     .365729519817D-09  .100000000000D+01  .168600000000D+04  .000000000000D+00
     .240000000000D+01  .000000000000D+00 -.791624188423D-08  .400000000000D+01
     .405456000000D+06  .400000000000D+01
27 12  5  3 17 59 44.0  .384035520256D-03  .397903932026D-11  .000000000000D+00
     .520000000000D+02 -.101187500000D+03  .388123309751D-08 -.199927008850D+01
    -.491365790367D-05  .217071966035D-01  .125374644995D-04  .515374394226D+04
     .410384000000D+06 -.135973095894D-06  .237403800337D+01  .502914190292D-06
     .982015956609D+00  .144500000000D+03 -.108965634390D+01 -.760603110744D-08
    -.312870175156D-09  .100000000000D+01  .168600000000D+04  .000000000000D+00
     .240000000000D+01  .000000000000D+00 -.419095158577D-08  .520000000000D+02
     .407706000000D+06  .400000000000D+01
20 12  5  3 19 59 44.0  .632833689451D-04  .113686837722D-12  .000000000000D+00
     .500000000000D+01  .115343750000D+03  .509414076284D-08  .136902028736D+01
     .600330531597D-05  .502288539428D-02  .813789665699D-05  .515371726799D+04
     .417584000000D+06 -.150874257088D-06  .272529311620D+00 -.465661287308D-07
     .930808413964D+00  .203875000000D+03  .129110088317D+01 -.852749806167D-08
     .422160441820D-09  .100000000000D+01  .168600000000D+04  .000000000000D+00
     .240000000000D+01  .000000000000D+00 -.791624188423D-08  .500000000000D+01
     .410406000000D+06  .400000000000D+01
27 12  5  3 19 59 44.0  .384064391255D-03  .397903932026D-11  .000000000000D+00
     .530000000000D+02 -.875937500000D+02  .393694970404D-08 -.949032383854D+00
    -.480562448502D-05  .217071633087D-01  .124592334032D-04  .515374821854D+04
     .417584000000D+06 -.284984707832D-06  .237397926428D+01 -.113621354103D-06
     .982012315406D+00  .154718750000D+03 -.108976102007D+01 -.815033949435D-08
    -.800033324599D-10  .100000000000D+01  .168600000000D+04  .000000000000D+00
     .240000000000D+01  .000000000000D+00 -.419095158577D-08  .530000000000D+02
     .410406000000D+06  .400000000000D+01
 1 12  5  3 20  0  0.0  .254121609032D-03  .295585778076D-11  .000000000000D+00
     .460000000000D+02 -.162500000000D+02  .424624830186D-08 -.285674661041D+01
    -.759959220886D-06  .657905824482D-03  .121593475342D-04  .515365701485D+04
     .417600000000D+06  .447034835815D-07 -.734239675321D+00  .707805156708D-07
     .960148378582D+00  .146531250000D+03  .348526478030D+00 -.786139888739D-08
    -.336799743347D-09  .100000000000D+01  .168600000000D+04  .000000000000D+00
     .240000000000D+01  .000000000000D+00  .838190317154D-08  .460000000000D+02
     .410406000000D+06  .400000000000D+01
 2 12  5  3 20  0  0.0  .388940796256D-03  .136424205266D-11  .000000000000D+00
     .790000000000D+02 -.167187500000D+02  .470305304389D-08 -.183237714488D+01
    -.955536961555D-06  .111832418479D-01  .121518969536D-04  .515369177246D+04
     .417600000000D+06  .316649675369D-07 -.747441200212D+00 -.167638063431D-06
     .938688907887D+00  .133656250000D+03 -.279703457199D+01 -.799604735318D-08
    -.288940606965D-09  .100000000000D+01  .168600000000D+04  .000000000000D+00
     .240000000000D+01  .000000000000D+00 -.172294676304D-07  .790000000000D+02
     .410406000000D+06  .400000000000D+01
 3 12  5  3 20  0  0.0  .440999865532D-04  .500222085975D-11  .000000000000D+00
     .620000000000D+02 -.346875000000D+01  .563380609921D-08 -.166399792330D+01
    -.279396772385D-07  .152149177156D-01  .332295894623D-05  .515370457840D+04
     .417600000000D+06  .372529029846D-06 -.191142345242D+01  .121071934700D-06
     .930695365506D+00  .296750000000D+03  .118413823218D+01 -.863250243552D-08
    -.692886004340D-10  .100000000000D+01  .168600000000D+04  .000000000000D+00
     .240000000000D+01  .000000000000D+00 -.465661287308D-08  .620000000000D+02
     .410406000000D+06  .400000000000D+01
 4 12  5  3 20  0  0.0  .172363594174D-03  .115960574476D-10  .000000000000D+00
     .159000000000D+03 -.818750000000D+01  .484341603343D-08  .132664768736D+01
    -.368803739548D-06  .998912344221D-02  .121630728245D-04  .515359792900D+04
     .417600000000D+06 -.126659870148D-06 -.730509829627D+00  .931322574615D-08
     .937761207164D+00  .138125000000D+03  .848293470599D+00 -.822927135361D-08
    -.517878714584D-09  .100000000000D+01  .168600000000D+04  .000000000000D+00
     .340000000000D+01  .000000000000D+00 -.605359673500D-08  .159000000000D+03
     .410406000000D+06  .400000000000D+01
 5 12  5  3 20  0  0.0 -.311529729515D-03 -.397903932026D-11  .000000000000D+00
     .610000000000D+02  .126875000000D+03  .467305179422D-08  .202542048209D+00
     .669620931149D-05  .268125953153D-02  .781379640102D-05  .515365788269D+04
     .417600000000D+06  .121071934700D-06  .315379697745D+00  .186264514923D-07
     .951641653318D+00  .223781250000D+03  .255041916594D+00 -.833463288520D-08
     .490377569051D-09  .100000000000D+01  .168600000000D+04  .000000000000D+00
     .240000000000D+01  .000000000000D+00 -.102445483208D-07  .610000000000D+02
     .410406000000D+06  .400000000000D+01
